[{"OBJECT_NAME":"STARLINK-36809","OBJECT_ID":"2026-036AB","EPOCH":"2026-03-06T20:00:00.999360","MEAN_MOTION":15.82083178,"ECCENTRICITY":0.0001959,"INCLINATION":42.9978,"RA_OF_ASC_NODE":267.047,"ARG_OF_PERICENTER":251.057,"MEAN_ANOMALY":1.8907,"EPHEMERIS_TYPE":0,"CLASSIFICATION_TYPE":"U","NORAD_CAT_ID":67929,"ELEMENT_SET_NO":999,"REV_AT_EPOCH":318,"BSTAR":-0.00055454,"MEAN_MOTION_DOT":-0.00116121,"MEAN_MOTION_DDOT":0},{"OBJECT_NAME":"STARLINK-36865","OBJECT_ID":"2026-036AC","EPOCH":"2026-03-06T20:00:00.999360","MEAN_MOTION":15.82034452,"ECCENTRICITY":0.0001614,"INCLINATION":42.9988,"RA_OF_ASC_NODE":267.0254,"ARG_OF_PERICENTER":253.8007,"MEAN_ANOMALY":7.706,"EPHEMERIS_TYPE":0,"CLASSIFICATION_TYPE":"U","NORAD_CAT_ID":67930,"ELEMENT_SET_NO":999,"REV_AT_EPOCH":318,"BSTAR":-0.00018225,"MEAN_MOTION_DOT":-0.00038769,"MEAN_MOTION_DDOT":0},{"OBJECT_NAME":"STARLINK-36781","OBJECT_ID":"2026-036AD","EPOCH":"2026-03-06T20:00:00.999360","MEAN_MOTION":15.81986258,"ECCENTRICITY":0.0002241,"INCLINATION":42.998,"RA_OF_ASC_NODE":267.0363,"ARG_OF_PERICENTER":284.8258,"MEAN_ANOMALY":332.4192,"EPHEMERIS_TYPE":0,"CLASSIFICATION_TYPE":"U","NORAD_CAT_ID":67931,"ELEMENT_SET_NO":999,"REV_AT_EPOCH":318,"BSTAR":0.00030633,"MEAN_MOTION_DOT":0.00064364,"MEAN_MOTION_DDOT":0},{"OBJECT_NAME":"STARLINK-36301","OBJECT_ID":"2026-037A","EPOCH":"2026-03-06T20:00:00.999360","MEAN_MOTION":15.88203614,"ECCENTRICITY":0.0001406,"INCLINATION":42.9998,"RA_OF_ASC_NODE":216.1396,"ARG_OF_PERICENTER":285.9944,"MEAN_ANOMALY":236.2627,"EPHEMERIS_TYPE":0,"CLASSIFICATION_TYPE":"U","NORAD_CAT_ID":67932,"ELEMENT_SET_NO":999,"REV_AT_EPOCH":265,"BSTAR":-0.0053964,"MEAN_MOTION_DOT":-0.01346963,"MEAN_MOTION_DDOT":0},{"OBJECT_NAME":"STARLINK-36852","OBJECT_ID":"2026-037B","EPOCH":"2026-03-06T20:00:00.999360","MEAN_MOTION":15.88376709,"ECCENTRICITY":0.0001287,"INCLINATION":43,"RA_OF_ASC_NODE":216.132,"ARG_OF_PERICENTER":284.3391,"MEAN_ANOMALY":240.877,"EPHEMERIS_TYPE":0,"CLASSIFICATION_TYPE":"U","NORAD_CAT_ID":67933,"ELEMENT_SET_NO":999,"REV_AT_EPOCH":273,"BSTAR":-0.0053599,"MEAN_MOTION_DOT":-0.01349221,"MEAN_MOTION_DDOT":0},{"OBJECT_NAME":"STARLINK-36861","OBJECT_ID":"2026-037C","EPOCH":"2026-03-06T20:00:00.999360","MEAN_MOTION":15.88502197,"ECCENTRICITY":0.0001435,"INCLINATION":43,"RA_OF_ASC_NODE":216.1235,"ARG_OF_PERICENTER":283.8298,"MEAN_ANOMALY":244.8647,"EPHEMERIS_TYPE":0,"CLASSIFICATION_TYPE":"U","NORAD_CAT_ID":67934,"ELEMENT_SET_NO":999,"REV_AT_EPOCH":273,"BSTAR":-0.0053709,"MEAN_MOTION_DOT":-0.01359324,"MEAN_MOTION_DDOT":0},{"OBJECT_NAME":"STARLINK-36860","OBJECT_ID":"2026-037D","EPOCH":"2026-03-06T20:00:00.999360","MEAN_MOTION":15.88630401,"ECCENTRICITY":0.0001466,"INCLINATION":42.9999,"RA_OF_ASC_NODE":216.1148,"ARG_OF_PERICENTER":286.6034,"MEAN_ANOMALY":245.642,"EPHEMERIS_TYPE":0,"CLASSIFICATION_TYPE":"U","NORAD_CAT_ID":67935,"ELEMENT_SET_NO":999,"REV_AT_EPOCH":273,"BSTAR":-0.0054667,"MEAN_MOTION_DOT":-0.01388384,"MEAN_MOTION_DDOT":0},{"OBJECT_NAME":"STARLINK-36848","OBJECT_ID":"2026-037E","EPOCH":"2026-03-06T20:00:00.999360","MEAN_MOTION":15.88882061,"ECCENTRICITY":0.0001217,"INCLINATION":42.9999,"RA_OF_ASC_NODE":216.0969,"ARG_OF_PERICENTER":284.6993,"MEAN_ANOMALY":254.4119,"EPHEMERIS_TYPE":0,"CLASSIFICATION_TYPE":"U","NORAD_CAT_ID":67936,"ELEMENT_SET_NO":999,"REV_AT_EPOCH":273,"BSTAR":-0.0055068,"MEAN_MOTION_DOT":-0.01412751,"MEAN_MOTION_DDOT":0},{"OBJECT_NAME":"STARLINK-36370","OBJECT_ID":"2026-037F","EPOCH":"2026-03-06T20:00:00.999360","MEAN_MOTION":15.88743783,"ECCENTRICITY":0.0001455,"INCLINATION":43.0001,"RA_OF_ASC_NODE":216.106,"ARG_OF_PERICENTER":287.3349,"MEAN_ANOMALY":248.5034,"EPHEMERIS_TYPE":0,"CLASSIFICATION_TYPE":"U","NORAD_CAT_ID":67937,"ELEMENT_SET_NO":999,"REV_AT_EPOCH":273,"BSTAR":-0.0055074,"MEAN_MOTION_DOT":-0.01404422,"MEAN_MOTION_DDOT":0},{"OBJECT_NAME":"STARLINK-36371","OBJECT_ID":"2026-037G","EPOCH":"2026-03-06T20:00:00.999360","MEAN_MOTION":15.89028156,"ECCENTRICITY":0.0001416,"INCLINATION":43,"RA_OF_ASC_NODE":216.0888,"ARG_OF_PERICENTER":285.0728,"MEAN_ANOMALY":257.1276,"EPHEMERIS_TYPE":0,"CLASSIFICATION_TYPE":"U","NORAD_CAT_ID":67938,"ELEMENT_SET_NO":999,"REV_AT_EPOCH":273,"BSTAR":-0.0054408,"MEAN_MOTION_DOT":-0.01407254,"MEAN_MOTION_DDOT":0},{"OBJECT_NAME":"STARLINK-36246","OBJECT_ID":"2026-037H","EPOCH":"2026-03-06T20:00:00.999360","MEAN_MOTION":15.89171062,"ECCENTRICITY":0.0001362,"INCLINATION":42.9999,"RA_OF_ASC_NODE":216.0816,"ARG_OF_PERICENTER":283.846,"MEAN_ANOMALY":261.4292,"EPHEMERIS_TYPE":0,"CLASSIFICATION_TYPE":"U","NORAD_CAT_ID":67939,"ELEMENT_SET_NO":999,"REV_AT_EPOCH":265,"BSTAR":-0.005384,"MEAN_MOTION_DOT":-0.01403334,"MEAN_MOTION_DDOT":0},{"OBJECT_NAME":"STARLINK-36907","OBJECT_ID":"2026-037J","EPOCH":"2026-03-06T20:00:00.999360","MEAN_MOTION":15.89560941,"ECCENTRICITY":0.0001226,"INCLINATION":43,"RA_OF_ASC_NODE":216.0559,"ARG_OF_PERICENTER":283.3988,"MEAN_ANOMALY":271.6612,"EPHEMERIS_TYPE":0,"CLASSIFICATION_TYPE":"U","NORAD_CAT_ID":67940,"ELEMENT_SET_NO":999,"REV_AT_EPOCH":273,"BSTAR":-0.0053634,"MEAN_MOTION_DOT":-0.014231,"MEAN_MOTION_DDOT":0},{"OBJECT_NAME":"STARLINK-36927","OBJECT_ID":"2026-037K","EPOCH":"2026-03-06T20:00:00.999360","MEAN_MOTION":15.89828796,"ECCENTRICITY":0.0001276,"INCLINATION":42.9999,"RA_OF_ASC_NODE":216.04,"ARG_OF_PERICENTER":284.1415,"MEAN_ANOMALY":277.2027,"EPHEMERIS_TYPE":0,"CLASSIFICATION_TYPE":"U","NORAD_CAT_ID":67941,"ELEMENT_SET_NO":999,"REV_AT_EPOCH":273,"BSTAR":-0.0053322,"MEAN_MOTION_DOT":-0.01433006,"MEAN_MOTION_DDOT":0},{"OBJECT_NAME":"STARLINK-36914","OBJECT_ID":"2026-037L","EPOCH":"2026-03-06T20:00:00.999360","MEAN_MOTION":15.89280183,"ECCENTRICITY":0.0001203,"INCLINATION":42.9999,"RA_OF_ASC_NODE":216.0718,"ARG_OF_PERICENTER":284.3166,"MEAN_ANOMALY":264.6201,"EPHEMERIS_TYPE":0,"CLASSIFICATION_TYPE":"U","NORAD_CAT_ID":67942,"ELEMENT_SET_NO":999,"REV_AT_EPOCH":273,"BSTAR":-0.0054709,"MEAN_MOTION_DOT":-0.01429797,"MEAN_MOTION_DDOT":0},{"OBJECT_NAME":"STARLINK-36851","OBJECT_ID":"2026-037M","EPOCH":"2026-03-06T20:00:00.999360","MEAN_MOTION":15.89420247,"ECCENTRICITY":0.0001327,"INCLINATION":43,"RA_OF_ASC_NODE":216.0641,"ARG_OF_PERICENTER":286.1266,"MEAN_ANOMALY":265.9003,"EPHEMERIS_TYPE":0,"CLASSIFICATION_TYPE":"U","NORAD_CAT_ID":67943,"ELEMENT_SET_NO":999,"REV_AT_EPOCH":273,"BSTAR":-0.0054377,"MEAN_MOTION_DOT":-0.01431262,"MEAN_MOTION_DDOT":0},{"OBJECT_NAME":"STARLINK-36892","OBJECT_ID":"2026-037N","EPOCH":"2026-03-06T20:00:00.999360","MEAN_MOTION":15.89698933,"ECCENTRICITY":0.0001253,"INCLINATION":42.9998,"RA_OF_ASC_NODE":216.0487,"ARG_OF_PERICENTER":284.1224,"MEAN_ANOMALY":274.0713,"EPHEMERIS_TYPE":0,"CLASSIFICATION_TYPE":"U","NORAD_CAT_ID":67944,"ELEMENT_SET_NO":999,"REV_AT_EPOCH":273,"BSTAR":-0.0053683,"MEAN_MOTION_DOT":-0.01433052,"MEAN_MOTION_DDOT":0}]
